{
    "links": {
        "self": "http://www.neowsapp.com/rest/v1/neo/3337712?api_key=iIulBulltgU6a56xZRHN4H3l9WmuAYTsLGpBGhQ2"
    },
    "id": "3337712",
    "neo_reference_id": "3337712",
    "name": "(2006 OC7)",
    "designation": "2006 OC7",
    "nasa_jpl_url": "http://ssd.jpl.nasa.gov/sbdb.cgi?sstr=3337712",
    "absolute_magnitude_h": 22.7,
    "estimated_diameter": {
        "kilometers": {
            "estimated_diameter_min": 0.0766575574,
            "estimated_diameter_max": 0.1714115092
        },
        "meters": {
            "estimated_diameter_min": 76.6575573531,
            "estimated_diameter_max": 171.4115092306
        },
        "miles": {
            "estimated_diameter_min": 0.0476327831,
            "estimated_diameter_max": 0.1065101409
        },
        "feet": {
            "estimated_diameter_min": 251.5011804664,
            "estimated_diameter_max": 562.3737359442
        }
    },
    "is_potentially_hazardous_asteroid": false,
    "close_approach_data": [
        {
            "close_approach_date": "2006-07-19",
            "close_approach_date_full": "2006-Jul-19 20:00",
            "epoch_date_close_approach": 1153339200000,
            "relative_velocity": {
                "kilometers_per_second": "9.8321152562",
                "kilometers_per_hour": "35395.6149223411",
                "miles_per_hour": "21993.4586166069"
            },
            "miss_distance": {
                "astronomical": "0.0469182718",
                "lunar": "18.2512077302",
                "kilometers": "7018873.525361066",
                "miles": "4361325.7712960708"
            },
            "orbiting_body": "Earth"
        }
    ],
    "orbital_data": {
        "orbit_id": "13",
        "orbit_determination_date": "2017-04-06 09:08:21",
        "first_observation_date": "2006-07-24",
        "last_observation_date": "2006-08-23",
        "data_arc_in_days": 30,
        "observations_used": 52,
        "orbit_uncertainty": "7",
        "minimum_orbit_intersection": ".0457111",
        "jupiter_tisserand_invariant": "3.452",
        "epoch_osculation": "2459000.5",
        "eccentricity": ".5247371555208878",
        "semi_major_axis": "2.199597643799851",
        "inclination": "11.01019228871399",
        "ascending_node_longitude": "298.7025463869078",
        "orbital_period": "1191.55281105497",
        "perihelion_distance": "1.04538703290187",
        "perihelion_argument": "339.557150129234",
        "aphelion_distance": "3.353808254697831",
        "perihelion_time": "2458681.923690892027",
        "mean_anomaly": "96.25043071093837",
        "mean_motion": ".3021267682472801",
        "equinox": "J2000",
        "orbit_class": {
            "orbit_class_type": "AMO",
            "orbit_class_description": "Near-Earth asteroid orbits similar to that of 1221 Amor",
            "orbit_class_range": "1.017 AU < q (perihelion) < 1.3 AU"
        }
    },
    "is_sentry_object": false
}